COMMENT,ORIGINATOR,NORAD_CAT_ID,OBJECT_NAME,OBJECT_TYPE,CLASSIFICATION_TYPE,INTLDES,EPOCH,EPOCH_MICROSECONDS,MEAN_MOTION,ECCENTRICITY,INCLINATION,RA_OF_ASC_NODE,ARG_OF_PERICENTER,MEAN_ANOMALY,EPHEMERIS_TYPE,ELEMENT_SET_NO,REV_AT_EPOCH,BSTAR,MEAN_MOTION_DOT,MEAN_MOTION_DDOT,FILE,TLE_LINE0,TLE_LINE1,TLE_LINE2,OBJECT_ID,OBJECT_NUMBER,SEMIMAJOR_AXIS,PERIOD,APOGEE,PERIGEE
GENERATED VIA SPACETRACK.ORG API,18 SPCS,41616,FLOCK 2P 5,PAYLOAD,U,16040T,3/20/2019 3:38,718784,15.25141623,0.0009897,97.386,145.8091,1.1826,358.9478,0,999,15227,6.76E-05,1.62E-05,0,2428567,0 FLOCK 2P 5,1 41616U 16040T   19079.15168656  .00001624  00000-0  67625-4 0  9996,2 41616  97.3860 145.8091 0009897   1.1826 358.9478 15.25141623152273,2016-040T,41616,6868.497,94.417,497.159,483.564
GENERATED VIA SPACETRACK.ORG API,18 SPCS,41616,FLOCK 2P 5,PAYLOAD,U,16040T,3/20/2019 19:23,439968,15.25142917,0.0009749,97.3833,146.4543,358.0402,2.0796,0,999,15237,6.03E-05,1.44E-05,0,2428953,0 FLOCK 2P 5,1 41616U 16040T   19079.80778287 +.00001441 +00000-0 +60308-4 0  9993,2 41616 097.3833 146.4543 0009749 358.0402 002.0796 15.25142917152370,2016-040T,41616,6868.493,94.417,497.054,483.662
GENERATED VIA SPACETRACK.ORG API,18 SPCS,41616,FLOCK 2P 5,PAYLOAD,U,16040T,3/21/2019 9:33,497760,15.25145026,0.000967,97.3832,147.0368,355.9192,4.1966,0,999,15246,6.25E-05,1.50E-05,0,2429236,0 FLOCK 2P 5,1 41616U 16040T   19080.39826965  .00001496  00000-0  62520-4 0  9994,2 41616  97.3832 147.0368 0009670 355.9192   4.1966 15.25145026152462,2016-040T,41616,6868.486,94.417,496.993,483.71
GENERATED VIA SPACETRACK.ORG API,18 SPCS,41616,FLOCK 2P 5,PAYLOAD,U,16040T,3/21/2019 15:51,167744,15.25145644,0.0009645,97.3831,147.2957,354.9568,5.1571,0,999,15250,6.08E-05,1.45E-05,0,2429712,0 FLOCK 2P 5,1 41616U 16040T   19080.66070796 +.00001452 +00000-0 +60752-4 0  9994,2 41616 097.3831 147.2957 0009645 354.9568 005.1571 15.25145644152509,2016-040T,41616,6868.485,94.417,496.974,483.725
GENERATED VIA SPACETRACK.ORG API,18 SPCS,41616,FLOCK 2P 5,PAYLOAD,U,16040T,3/22/2019 17:03,821760,15.25147968,0.0009536,97.3829,148.3313,351.123,8.9838,0,999,15266,5.63E-05,1.34E-05,0,2430408,0 FLOCK 2P 5,1 41616U 16040T   19081.71046090  .00001342  00000-0  56349-4 0  9996,2 41616  97.3829 148.3313 0009536 351.1230   8.9838 15.25147968152663,2016-040T,41616,6868.478,94.417,496.892,483.793
GENERATED VIA SPACETRACK.ORG API,18 SPCS,41616,FLOCK 2P 5,PAYLOAD,U,16040T,3/23/2019 19:49,917984,15.25149722,0.0009438,97.3827,149.4315,347.01,13.0894,0,999,15283,4.63E-05,1.09E-05,0,2430791,0 FLOCK 2P 5,1 41616U 16040T   19082.82582081  .00001090  00000-0  46317-4 0  9998,2 41616  97.3827 149.4315 0009438 347.0100  13.0894 15.25149722152834,2016-040T,41616,6868.472,94.416,496.82,483.855
GENERATED VIA SPACETRACK.ORG API,18 SPCS,41616,FLOCK 2P 5,PAYLOAD,U,16040T,3/24/2019 17:51,868512,15.25152874,0.0009314,97.3826,150.3375,343.0918,17.0008,0,999,15297,5.10E-05,1.21E-05,0,2431398,0 FLOCK 2P 5,1 41616U 16040T   19083.74435033 +.00001207 +00000-0 +50987-4 0  9992,2 41616 097.3826 150.3375 0009314 343.0918 017.0008 15.25152874152974,2016-040T,41616,6868.463,94.416,496.725,483.931
GENERATED VIA SPACETRACK.ORG API,18 SPCS,41616,FLOCK 2P 5,PAYLOAD,U,16040T,3/25/2019 3:18,715808,15.25153586,0.0009273,97.3825,150.7257,341.6569,18.4333,0,999,15303,4.89E-05,1.16E-05,0,2431525,0 FLOCK 2P 5,1 41616U 16040T   19084.13800597  .00001156  00000-0  48925-4 0  9999,2 41616  97.3825 150.7257 0009273 341.6569  18.4333 15.25153586153031,2016-040T,41616,6868.461,94.416,496.695,483.957
GENERATED VIA SPACETRACK.ORG API,18 SPCS,41616,FLOCK 2P 5,PAYLOAD,U,16040T,3/25/2019 17:29,440096,15.25155959,0.0009216,97.3824,151.3082,339.4555,20.6311,0,999,15312,5.60E-05,1.33E-05,0,2432045,0 FLOCK 2P 5,1 41616U 16040T   19084.72848889 +.00001332 +00000-0 +55958-4 0  9990,2 41616 097.3824 151.3082 0009216 339.4555 020.6311 15.25155959153127,2016-040T,41616,6868.454,94.416,496.649,483.989
GENERATED VIA SPACETRACK.ORG API,18 SPCS,41616,FLOCK 2P 5,PAYLOAD,U,16040T,3/26/2019 4:30,843648,15.25156978,0.0009169,97.3823,151.7612,337.655,22.4287,0,999,15319,5.50E-05,1.31E-05,0,2432194,0 FLOCK 2P 5,1 41616U 16040T   19085.18775282  .00001308  00000-0  55016-4 0  9995,2 41616  97.3823 151.7612 0009169 337.6550  22.4287 15.25156978153192,2016-040T,41616,6868.451,94.416,496.613,484.018
GENERATED VIA SPACETRACK.ORG API,18 SPCS,41616,FLOCK 2P 5,PAYLOAD,U,16040T,3/26/2019 20:15,188992,15.25157539,0.000911,97.3822,152.4084,335.0359,25.0437,0,999,15329,5.01E-05,1.18E-05,0,2432702,0 FLOCK 2P 5,1 41616U 16040T   19085.84384478 +.00001184 +00000-0 +50069-4 0  9996,2 41616 097.3822 152.4084 0009110 335.0359 025.0437 15.25157539153298,2016-040T,41616,6868.449,94.416,496.571,484.057
GENERATED VIA SPACETRACK.ORG API,18 SPCS,41616,FLOCK 2P 5,PAYLOAD,U,16040T,3/27/2019 8:50,190272,15.251589,0.0009067,97.3822,152.9262,332.9725,27.104,0,999,15337,5.19E-05,1.23E-05,0,2433033,0 FLOCK 2P 5,1 41616U 16040T   19086.36871748  .00001230  00000-0  51903-4 0  9995,2 41616  97.3822 152.9262 0009067 332.9725  27.1040 15.25158900153370,2016-040T,41616,6868.445,94.416,496.537,484.082
GENERATED VIA SPACETRACK.ORG API,18 SPCS,41616,FLOCK 2P 5,PAYLOAD,U,16040T,3/27/2019 19:52,446944,15.25160991,0.0009026,97.382,153.3792,331.4412,28.633,0,999,15344,5.74E-05,1.37E-05,0,2433537,0 FLOCK 2P 5,1 41616U 16040T   19086.82797971 +.00001367 +00000-0 +57356-4 0  9990,2 41616 097.3820 153.3792 0009026 331.4412 028.6330 15.25160991153442,2016-040T,41616,6868.439,94.416,496.503,484.104
GENERATED VIA SPACETRACK.ORG API,18 SPCS,41616,FLOCK 2P 5,PAYLOAD,U,16040T,3/28/2019 14:46,700896,15.25164242,0.0008942,97.382,154.1558,328.4489,31.6211,0,999,15356,6.53E-05,1.57E-05,0,2433743,0 FLOCK 2P 5,1 41616U 16040T   19087.61528589 +.00001567 +00000-0 +65315-4 0  9991,2 41616 097.3820 154.1558 0008942 328.4489 031.6211 15.25164242153565,2016-040T,41616,6868.429,94.416,496.436,484.152
GENERATED VIA SPACETRACK.ORG API,18 SPCS,41616,FLOCK 2P 5,PAYLOAD,U,16040T,3/28/2019 17:54,894624,15.25164683,0.0008933,97.3819,154.2852,327.9441,32.1253,0,999,15358,6.57E-05,1.58E-05,0,2433655,0 FLOCK 2P 5,1 41616U 16040T   19087.74650341  .00001576  00000-0  65677-4 0  9998,2 41616  97.3819 154.2852 0008933 327.9441  32.1253 15.25164683153586,2016-040T,41616,6868.427,94.416,496.428,484.157
GENERATED VIA SPACETRACK.ORG API,18 SPCS,41616,FLOCK 2P 5,PAYLOAD,U,16040T,3/28/2019 22:38,676576,15.25165285,0.0008935,97.3819,154.4793,327.0987,32.9693,0,999,15361,6.58E-05,1.58E-05,0,2434078,0 FLOCK 2P 5,1 41616U 16040T   19087.94332959 +.00001580 +00000-0 +65817-4 0  9993,2 41616 097.3819 154.4793 0008935 327.0987 032.9693 15.25165285153619,2016-040T,41616,6868.426,94.415,496.428,484.154
GENERATED VIA SPACETRACK.ORG API,18 SPCS,41616,FLOCK 2P 5,PAYLOAD,U,16040T,3/29/2019 8:05,252576,15.25166423,0.0008897,97.3818,154.8676,325.5686,34.4974,0,999,15367,6.59E-05,1.58E-05,0,2434106,0 FLOCK 2P 5,1 41616U 16040T   19088.33698209 +.00001583 +00000-0 +65946-4 0  9996,2 41616 097.3818 154.8676 0008897 325.5686 034.4974 15.25166423153678,2016-040T,41616,6868.422,94.415,496.398,484.176
GENERATED VIA SPACETRACK.ORG API,18 SPCS,41616,FLOCK 2P 5,PAYLOAD,U,16040T,3/29/2019 22:15,601024,15.25167547,0.0008859,97.3817,155.45,323.1798,36.883,0,999,15376,6.27E-05,1.50E-05,0,2434309,0 FLOCK 2P 5,1 41616U 16040T   19088.92746066 +.00001502 +00000-0 +62705-4 0  9997,2 41616 097.3817 155.4500 0008859 323.1798 036.8830 15.25167547153761,2016-040T,41616,6868.419,94.415,496.369,484.199
GENERATED VIA SPACETRACK.ORG API,18 SPCS,41616,FLOCK 2P 5,PAYLOAD,U,16040T,3/30/2019 20:18,735936,15.25171318,0.0008776,97.3816,156.356,319.3715,40.6867,0,999,15390,7.24E-05,1.75E-05,0,2434583,0 FLOCK 2P 5,1 41616U 16040T   19089.84598074  .00001746  00000-0  72447-4 0  9997,2 41616  97.3816 156.3560 0008776 319.3715  40.6867 15.25171318153900,2016-040T,41616,6868.408,94.415,496.3,484.245
GENERATED VIA SPACETRACK.ORG API,18 SPCS,41616,FLOCK 2P 5,PAYLOAD,U,16040T,3/30/2019 21:52,308608,15.25171544,0.000877,97.3816,156.4207,319.0944,40.9635,0,999,15391,7.25E-05,1.75E-05,0,2434639,0 FLOCK 2P 5,1 41616U 16040T   19089.91158922 +.00001748 +00000-0 +72523-4 0  9996,2 41616 097.3816 156.4207 0008770 319.0944 040.9635 15.25171544153912,2016-040T,41616,6868.407,94.415,496.295,484.248
GENERATED VIA SPACETRACK.ORG API,18 SPCS,41616,FLOCK 2P 5,PAYLOAD,U,16040T,3/31/2019 21:29,877088,15.25173585,0.0008702,97.3814,157.3913,315.0836,44.9698,0,999,15406,6.22E-05,1.49E-05,0,2435240,0 FLOCK 2P 5,1 41616U 16040T   19090.89571617 +.00001489 +00000-0 +62195-4 0  9991,2 41616 097.3814 157.3913 0008702 315.0836 044.9698 15.25173585154062,2016-040T,41616,6868.401,94.415,496.243,484.289
GENERATED VIA SPACETRACK.ORG API,18 SPCS,41616,FLOCK 2P 5,PAYLOAD,U,16040T,4/1/2019 3:47,125440,15.25174282,0.0008682,97.3814,157.6502,314.0039,46.0483,0,999,15410,6.06E-05,1.45E-05,0,2435367,0 FLOCK 2P 5,1 41616U 16040T   19091.15814960  .00001449  00000-0  60594-4 0  9999,2 41616  97.3814 157.6502 0008682 314.0039  46.0483 15.25174282154105,2016-040T,41616,6868.399,94.415,496.227,484.301
GENERATED VIA SPACETRACK.ORG API,18 SPCS,41616,FLOCK 2P 5,PAYLOAD,U,16040T,4/1/2019 21:06,309920,15.25175975,0.0008632,97.3813,158.362,311.1162,48.933,0,999,15421,5.74E-05,1.37E-05,0,2435917,0 FLOCK 2P 5,1 41616U 16040T   19091.87984155 +.00001368 +00000-0 +57365-4 0  9994,2 41616 097.3813 158.3620 0008632 311.1162 048.9330 15.25175975154217,2016-040T,41616,6868.394,94.415,496.187,484.33
GENERATED VIA SPACETRACK.ORG API,18 SPCS,41616,FLOCK 2P 5,PAYLOAD,U,16040T,4/2/2019 4:59,129216,15.25176286,0.0008604,97.3812,158.6855,309.7318,50.3161,0,999,15426,5.33E-05,1.27E-05,0,2436080,0 FLOCK 2P 5,1 41616U 16040T   19092.20788344  .00001266  00000-0  53311-4 0  9998,2 41616  97.3812 158.6855 0008604 309.7318  50.3161 15.25176286154264,2016-040T,41616,6868.393,94.415,496.167,484.348
